ONEWEB-0446             
1 51640U 22012U   25330.82335117  .00000708  00000+0  19919-2 0  9991
2 51640  87.8803  76.6302 0001548  98.0865 262.0438 13.10375426182828
ONEWEB-0448             
1 51641U 22012V   25330.82833718  .00000691  00000+0  19436-2 0  9997
2 51641  87.8800  76.6288 0001701 104.6639 255.4677 13.10375209182799
ONEWEB-0449             
1 51642U 22012W   25330.83329125  .00000656  00000+0  18424-2 0  9998
2 51642  87.8809  76.5989 0001472 120.1734 239.9539 13.10371730182801
ONEWEB-0451             
1 51643U 22012X   25330.76300581 -.00000004  00000+0 -42542-4 0  9995
2 51643  87.9132  46.0819 0001715 105.5884 254.5437 13.17649096187006
ONEWEB-0452             
1 51644U 22012Y   25331.21693400  .00000096  00000+0  21293-3 0  9990
2 51644  87.9128  46.0481 0001879 111.5484 248.5848 13.17647905187074
ONEWEB-0456             
1 51646U 22012AA  25330.84324266  .00000244  00000+0  66133-3 0  9998
2 51646  87.8814  76.5653 0001820 101.1722 258.9610 13.10369424182844
ONEWEB-0457             
1 51647U 22012AB  25330.82000683  .00000722  00000+0  20320-2 0  9999
2 51647  87.8799  76.6185 0001229 108.1617 251.9645 13.10374933182843
ONEWEB-0458             
1 51648U 22012AC  25330.84158713  .00000351  00000+0  97007-3 0  9995
2 51648  87.8808  76.5869 0001701 110.3044 249.8266 13.10369539182804
